{
  "type": "FeatureCollection",
  "features": [
    {
      "type": "Feature",
      "properties": {
        "norad_id": 34022,
        "name": "COSMOS 2251 DEB",
        "group": "cosmos-2251-debris",
        "lat": 31.472193220671333,
        "lon": 75.33148509634252,
        "alt_km": 776.0446257517006,
        "timestamp": "2025-12-15T15:53:20.241832+00:00",
        "meta_object_name": "COSMOS 2251 DEB",
        "meta_object_id": "1993-036HH",
        "meta_epoch": "2025-12-14T21:09:15.287616",
        "meta_mean_motion": 14.38966684,
        "meta_eccentricity": 0.00228017,
        "meta_inclination": 74.0542,
        "meta_ra_of_asc_node": 266.8487,
        "meta_arg_of_pericenter": 331.4647,
        "meta_mean_anomaly": 93.3803,
        "meta_ephemeris_type": 0,
        "meta_classification_type": "U",
        "meta_norad_cat_id": 34022,
        "meta_element_set_no": 999,
        "meta_rev_at_epoch": 88226,
        "meta_bstar": 0.00024904499,
        "meta_mean_motion_dot": 7.44e-06,
        "meta_mean_motion_ddot": 0,
        "tle_line1": "1 34022U 93036HH  25348.88142694  .00000744  00000+0  24904-3 0  9992",
        "tle_line2": "2 34022  74.0542 266.8487 0022801 331.4647  93.3803 14.38966684882264"
      },
      "geometry": {
        "type": "Point",
        "coordinates": [
          75.33148509634252,
          31.472193220671333
        ]
      }
    },
    {
      "type": "Feature",
      "properties": {
        "norad_id": 34023,
        "name": "COSMOS 2251 DEB",
        "group": "cosmos-2251-debris",
        "lat": 72.75103509564997,
        "lon": -46.35115898881168,
        "alt_km": 752.0038070896981,
        "timestamp": "2025-12-15T15:53:20.241841+00:00",
        "meta_object_name": "COSMOS 2251 DEB",
        "meta_object_id": "1993-036HJ",
        "meta_epoch": "2025-12-14T19:49:21.298944",
        "meta_mean_motion": 14.40566288,
        "meta_eccentricity": 0.00185466,
        "meta_inclination": 74.0247,
        "meta_ra_of_asc_node": 247.8825,
        "meta_arg_of_pericenter": 343.222,
        "meta_mean_anomaly": 85.7203,
        "meta_ephemeris_type": 0,
        "meta_classification_type": "U",
        "meta_norad_cat_id": 34023,
        "meta_element_set_no": 999,
        "meta_rev_at_epoch": 88244,
        "meta_bstar": 0.00038284419,
        "meta_mean_motion_dot": 1.196e-05,
        "meta_mean_motion_ddot": 0,
        "tle_line1": "1 34023U 93036HJ  25348.82594096  .00001196  00000+0  38284-3 0  9992",
        "tle_line2": "2 34023  74.0247 247.8825 0018546 343.2220  85.7203 14.40566288882449"
      },
      "geometry": {
        "type": "Point",
        "coordinates": [
          -46.35115898881168,
          72.75103509564997
        ]
      }
    },
    {
      "type": "Feature",
      "properties": {
        "norad_id": 34024,
        "name": "COSMOS 2251 DEB",
        "group": "cosmos-2251-debris",
        "lat": 36.71829455035833,
        "lon": -37.04318223636665,
        "alt_km": 758.8355317119122,
        "timestamp": "2025-12-15T15:53:20.241851+00:00",
        "meta_object_name": "COSMOS 2251 DEB",
        "meta_object_id": "1993-036HK",
        "meta_epoch": "2025-12-14T21:24:49.932576",
        "meta_mean_motion": 14.35398819,
        "meta_eccentricity": 0.0021131,
        "meta_inclination": 74.0465,
        "meta_ra_of_asc_node": 312.0479,
        "meta_arg_of_pericenter": 2.2569,
        "meta_mean_anomaly": 19.8628,
        "meta_ephemeris_type": 0,
        "meta_classification_type": "U",
        "meta_norad_cat_id": 34024,
        "meta_element_set_no": 999,
        "meta_rev_at_epoch": 88055,
        "meta_bstar": 0.00021240296,
        "meta_mean_motion_dot": 5.85e-06,
        "meta_mean_motion_ddot": 0,
        "tle_line1": "1 34024U 93036HK  25348.89224459  .00000585  00000+0  21240-3 0  9998",
        "tle_line2": "2 34024  74.0465 312.0479 0021131   2.2569  19.8628 14.35398819880550"
      },
      "geometry": {
        "type": "Point",
        "coordinates": [
          -37.04318223636665,
          36.71829455035833
        ]
      }
    },
    {
      "type": "Feature",
      "properties": {
        "norad_id": 34026,
        "name": "COSMOS 2251 DEB",
        "group": "cosmos-2251-debris",
        "lat": -73.62566353829385,
        "lon": -110.09446592827314,
        "alt_km": 927.2604238705835,
        "timestamp": "2025-12-15T15:53:20.241860+00:00",
        "meta_object_name": "COSMOS 2251 DEB",
        "meta_object_id": "1993-036HM",
        "meta_epoch": "2025-12-14T09:26:09.164832",
        "meta_mean_motion": 13.65311952,
        "meta_eccentricity": 0.0350446,
        "meta_inclination": 73.7669,
        "meta_ra_of_asc_node": 334.5359,
        "meta_arg_of_pericenter": 204.305,
        "meta_mean_anomaly": 309.6659,
        "meta_ephemeris_type": 0,
        "meta_classification_type": "U",
        "meta_norad_cat_id": 34026,
        "meta_element_set_no": 999,
        "meta_rev_at_epoch": 83554,
        "meta_bstar": 0.0008138152,
        "meta_mean_motion_dot": 9.83e-06,
        "meta_mean_motion_ddot": 0,
        "tle_line1": "1 34026U 93036HM  25348.39316163  .00000983  00000+0  81382-3 0  9994",
        "tle_line2": "2 34026  73.7669 334.5359 0350446 204.3050 309.6659 13.65311952835542"
      },
      "geometry": {
        "type": "Point",
        "coordinates": [
          -110.09446592827314,
          -73.62566353829385
        ]
      }
    },
    {
      "type": "Feature",
      "properties": {
        "norad_id": 34028,
        "name": "COSMOS 2251 DEB",
        "group": "cosmos-2251-debris",
        "lat": -0.040203728668313315,
        "lon": 162.78201961662694,
        "alt_km": 961.827991712471,
        "timestamp": "2025-12-15T15:53:20.241870+00:00",
        "meta_object_name": "COSMOS 2251 DEB",
        "meta_object_id": "1993-036HP",
        "meta_epoch": "2025-12-14T18:06:15.829632",
        "meta_mean_motion": 13.20624343,
        "meta_eccentricity": 0.0543637,
        "meta_inclination": 73.8834,
        "meta_ra_of_asc_node": 344.1615,
        "meta_arg_of_pericenter": 121.6641,
        "meta_mean_anomaly": 59.1526,
        "meta_ephemeris_type": 0,
        "meta_classification_type": "U",
        "meta_norad_cat_id": 34028,
        "meta_element_set_no": 999,
        "meta_rev_at_epoch": 81034,
        "meta_bstar": 0.00031742376,
        "meta_mean_motion_dot": 2.64e-06,
        "meta_mean_motion_ddot": 0,
        "tle_line1": "1 34028U 93036HP  25348.75434988  .00000264  00000+0  31742-3 0  9999",
        "tle_line2": "2 34028  73.8834 344.1615 0543637 121.6641  59.1526 13.20624343810347"
      },
      "geometry": {
        "type": "Point",
        "coordinates": [
          162.78201961662694,
          -0.040203728668313315
        ]
      }
    },
    {
      "type": "Feature",
      "properties": {
        "norad_id": 34031,
        "name": "COSMOS 2251 DEB",
        "group": "cosmos-2251-debris",
        "lat": 55.77041864175677,
        "lon": -74.79586372272877,
        "alt_km": 698.7051091589956,
        "timestamp": "2025-12-15T15:53:20.241879+00:00",
        "meta_object_name": "COSMOS 2251 DEB",
        "meta_object_id": "1993-036HS",
        "meta_epoch": "2025-12-14T13:36:37.304352",
        "meta_mean_motion": 14.59714184,
        "meta_eccentricity": 0.00230015,
        "meta_inclination": 74.0124,
        "meta_ra_of_asc_node": 132.2176,
        "meta_arg_of_pericenter": 252.4518,
        "meta_mean_anomaly": 236.8209,
        "meta_ephemeris_type": 0,
        "meta_classification_type": "U",
        "meta_norad_cat_id": 34031,
        "meta_element_set_no": 999,
        "meta_rev_at_epoch": 88592,
        "meta_bstar": 0.0011879891,
        "meta_mean_motion_dot": 5.661e-05,
        "meta_mean_motion_ddot": 0,
        "tle_line1": "1 34031U 93036HS  25348.56709843  .00005661  00000+0  11880-2 0  9993",
        "tle_line2": "2 34031  74.0124 132.2176 0023001 252.4518 236.8209 14.59714184885922"
      },
      "geometry": {
        "type": "Point",
        "coordinates": [
          -74.79586372272877,
          55.77041864175677
        ]
      }
    },
    {
      "type": "Feature",
      "properties": {
        "norad_id": 34035,
        "name": "COSMOS 2251 DEB",
        "group": "cosmos-2251-debris",
        "lat": -21.382763383010577,
        "lon": 170.06785802811112,
        "alt_km": 749.2107134043727,
        "timestamp": "2025-12-15T15:53:20.241888+00:00",
        "meta_object_name": "COSMOS 2251 DEB",
        "meta_object_id": "1993-036HW",
        "meta_epoch": "2025-12-14T09:44:31.043040",
        "meta_mean_motion": 14.51970881,
        "meta_eccentricity": 0.00448206,
        "meta_inclination": 74.0658,
        "meta_ra_of_asc_node": 346.0063,
        "meta_arg_of_pericenter": 347.1333,
        "meta_mean_anomaly": 132.1099,
        "meta_ephemeris_type": 0,
        "meta_classification_type": "U",
        "meta_norad_cat_id": 34035,
        "meta_element_set_no": 999,
        "meta_rev_at_epoch": 87990,
        "meta_bstar": 0.0019119331,
        "meta_mean_motion_dot": 7.801e-05,
        "meta_mean_motion_ddot": 0,
        "tle_line1": "1 34035U 93036HW  25348.40591485  .00007801  00000+0  19119-2 0  9992",
        "tle_line2": "2 34035  74.0658 346.0063 0044820 347.1333 132.1099 14.51970881879903"
      },
      "geometry": {
        "type": "Point",
        "coordinates": [
          170.06785802811112,
          -21.382763383010577
        ]
      }
    }
  ]
}